{"fetched_at":"2026-07-17T17:38:03.514Z","source":"https://celestrak.org/NORAD/elements/gp.php?NAME=ASTROCAST&FORMAT=JSON","constellation":"astrocast","records":[{"OBJECT_NAME":"ASTROCAST 0.1","OBJECT_ID":"2018-099AS","EPOCH":"2026-07-17T06:28:23.270592","CLASSIFICATION_TYPE":"U","MEAN_MOTION":15.51553603,"ECCENTRICITY":0.00054841,"INCLINATION":97.4367,"RA_OF_ASC_NODE":277.7488,"ARG_OF_PERICENTER":123.6984,"MEAN_ANOMALY":236.4792,"EPHEMERIS_TYPE":0,"NORAD_CAT_ID":43798,"ELEMENT_SET_NO":999,"REV_AT_EPOCH":41909,"BSTAR":0.00038930276,"MEAN_MOTION_DOT":0.00022998,"MEAN_MOTION_DDOT":0},{"OBJECT_NAME":"ASTROCAST-0402","OBJECT_ID":"2023-001DE","EPOCH":"2026-07-17T05:11:55.542048","CLASSIFICATION_TYPE":"U","MEAN_MOTION":15.29038872,"ECCENTRICITY":0.00065244,"INCLINATION":97.5584,"RA_OF_ASC_NODE":291.8743,"ARG_OF_PERICENTER":129.1451,"MEAN_ANOMALY":231.037,"EPHEMERIS_TYPE":0,"NORAD_CAT_ID":55109,"ELEMENT_SET_NO":999,"REV_AT_EPOCH":14912,"BSTAR":0.00025202932,"MEAN_MOTION_DOT":0.00007032,"MEAN_MOTION_DDOT":0},{"OBJECT_NAME":"ASTROCAST-0401","OBJECT_ID":"2023-001DF","EPOCH":"2026-07-16T18:35:17.436768","CLASSIFICATION_TYPE":"U","MEAN_MOTION":15.28582946,"ECCENTRICITY":0.0009564,"INCLINATION":97.557,"RA_OF_ASC_NODE":291.2291,"ARG_OF_PERICENTER":104.1129,"MEAN_ANOMALY":256.1174,"EPHEMERIS_TYPE":0,"NORAD_CAT_ID":55110,"ELEMENT_SET_NO":999,"REV_AT_EPOCH":19572,"BSTAR":0.00036366028,"MEAN_MOTION_DOT":0.00010051,"MEAN_MOTION_DDOT":0},{"OBJECT_NAME":"ASTROCAST-0403","OBJECT_ID":"2023-001DG","EPOCH":"2026-07-16T18:53:37.343328","CLASSIFICATION_TYPE":"U","MEAN_MOTION":15.3240355,"ECCENTRICITY":0.00048837,"INCLINATION":97.5626,"RA_OF_ASC_NODE":292.5731,"ARG_OF_PERICENTER":206.3636,"MEAN_ANOMALY":153.7357,"EPHEMERIS_TYPE":0,"NORAD_CAT_ID":55111,"ELEMENT_SET_NO":999,"REV_AT_EPOCH":14909,"BSTAR":0.00044499201,"MEAN_MOTION_DOT":0.00013856,"MEAN_MOTION_DDOT":0},{"OBJECT_NAME":"ASTROCAST-0404","OBJECT_ID":"2023-001DH","EPOCH":"2026-07-16T19:00:58.698720","CLASSIFICATION_TYPE":"U","MEAN_MOTION":15.28838819,"ECCENTRICITY":0.00052118,"INCLINATION":97.5672,"RA_OF_ASC_NODE":292.3778,"ARG_OF_PERICENTER":236.2655,"MEAN_ANOMALY":123.8088,"EPHEMERIS_TYPE":0,"NORAD_CAT_ID":55112,"ELEMENT_SET_NO":999,"REV_AT_EPOCH":14905,"BSTAR":0.00016361653,"MEAN_MOTION_DOT":0.00004508,"MEAN_MOTION_DDOT":0}]}
