ASTROCAST 0.1           
1 43798U 18099AS  26198.26971378  .00022998  00000+0  38930-3 0  9992
2 43798  97.4367 277.7488 0005484 123.6984 236.4792 15.51553603419096
ASTROCAST-0402          
1 55109U 23001DE  26198.21661507  .00007032  00000+0  25203-3 0  9996
2 55109  97.5584 291.8743 0006524 129.1451 231.0370 15.29038872149122
ASTROCAST-0401          
1 55110U 23001DF  26197.77450737  .00010051  00000+0  36366-3 0  9996
2 55110  97.5570 291.2291 0009564 104.1129 256.1174 15.28582946195725
ASTROCAST-0403          
1 55111U 23001DG  26197.78723777  .00013856  00000+0  44499-3 0  9997
2 55111  97.5626 292.5731 0004883 206.3636 153.7357 15.32403550149090
ASTROCAST-0404          
1 55112U 23001DH  26197.79234605  .00004508  00000+0  16362-3 0  9998
2 55112  97.5672 292.3778 0005211 236.2655 123.8088 15.28838819149050
